start=new Date('2022-04-08T00:00:00.000Z').valueOf();
sats=[{"RA_OF_ASC_NODE":"166.6052","REV_AT_EPOCH":"357","MEAN_MOTION_DDOT":"0.0000000000000","OBJECT_NAME":"STARLINK-3122","DECAY_DATE":null,"SEMIMAJOR_AXIS":"6917.861","FILE":"3392478","ECCENTRICITY":"0.00022190","TIME_SYSTEM":"UTC","REF_FRAME":"TEME","ELEMENT_SET_NO":"999","APOAPSIS":"541.261","TLE_LINE1":"1 49445U 21104AP  22097.91667824 -.00017597  00000-0 -10900-2 0  9990","TLE_LINE2":"2 49445  53.2150 166.6052 0002219  30.6814 336.9310 15.08846500  3573","CENTER_NAME":"EARTH","ARG_OF_PERICENTER":"30.6814","MEAN_ANOMALY":"336.9310","RCS_SIZE":"LARGE","OBJECT_ID":"2021-104AP","MEAN_ELEMENT_THEORY":"SGP4","GP_ID":"200702664","PERIOD":"95.437","MEAN_MOTION_DOT":"-0.00017597","SITE":"AFETR","MEAN_MOTION":"15.08846500","INCLINATION":"53.2150","BSTAR":"-0.00109000000000","PERIAPSIS":"538.190","LAUNCH_DATE":"2021-11-13","EPHEMERIS_TYPE":"0","CLASSIFICATION_TYPE":"U","EPOCH":"2022-04-07T22:00:00.999936","COUNTRY_CODE":"US","OBJECT_TYPE":"PAYLOAD","NORAD_CAT_ID":"49445"},{"ELEMENT_SET_NO":"999","REF_FRAME":"TEME","ECCENTRICITY":"0.00022080","FILE":"3392478","TIME_SYSTEM":"UTC","DECAY_DATE":null,"SEMIMAJOR_AXIS":"6917.881","OBJECT_NAME":"STARLINK-3099","REV_AT_EPOCH":"357","MEAN_MOTION_DDOT":"0.0000000000000","RA_OF_ASC_NODE":"156.5913","EPOCH":"2022-04-07T22:00:00.999936","OBJECT_TYPE":"PAYLOAD","COUNTRY_CODE":"US","NORAD_CAT_ID":"49446","LAUNCH_DATE":"2021-11-13","EPHEMERIS_TYPE":"0","CLASSIFICATION_TYPE":"U","BSTAR":"0.00097127000000","PERIAPSIS":"538.219","INCLINATION":"53.2174","MEAN_MOTION":"15.08839726","MEAN_ELEMENT_THEORY":"SGP4","GP_ID":"200702910","PERIOD":"95.438","MEAN_MOTION_DOT":"0.00015204","SITE":"AFETR","MEAN_ANOMALY":"76.1714","RCS_SIZE":"LARGE","OBJECT_ID":"2021-104AQ","APOAPSIS":"541.274","TLE_LINE1":"1 49446U 21104AQ  22097.91667824  .00015204  00000-0  97127-3 0  9999","TLE_LINE2":"2 49446  53.2174 156.5913 0002208  26.4502  76.1714 15.08839726  3572","CENTER_NAME":"EARTH","ARG_OF_PERICENTER":"26.4502"},{"LAUNCH_DATE":"2021-11-13","CLASSIFICATION_TYPE":"U","EPHEMERIS_TYPE":"0","OBJECT_TYPE":"PAYLOAD","COUNTRY_CODE":"US","EPOCH":"2022-04-07T22:00:00.999936","NORAD_CAT_ID":"49447","INCLINATION":"53.2164","PERIAPSIS":"538.180","BSTAR":"0.00015536000000","GP_ID":"200703165","MEAN_ELEMENT_THEORY":"SGP4","SITE":"AFETR","PERIOD":"95.437","MEAN_MOTION_DOT":"0.00002186","MEAN_MOTION":"15.08851853","TLE_LINE2":"2 49447  53.2164 166.6109 0002210  27.4891  20.1237 15.08851853  3570","TLE_LINE1":"1 49447U 21104AR  22097.91667824  .00002186  00000-0  15536-3 0  9999","APOAPSIS":"541.238","ARG_OF_PERICENTER":"27.4891","CENTER_NAME":"EARTH","OBJECT_ID":"2021-104AR","MEAN_ANOMALY":"20.1237","RCS_SIZE":"LARGE","ELEMENT_SET_NO":"999","REF_FRAME":"TEME","ECCENTRICITY":"0.00022100","FILE":"3392478","TIME_SYSTEM":"UTC","OBJECT_NAME":"STARLINK-3115","DECAY_DATE":null,"SEMIMAJOR_AXIS":"6917.844","RA_OF_ASC_NODE":"166.6109","REV_AT_EPOCH":"357","MEAN_MOTION_DDOT":"0.0000000000000"},{"MEAN_MOTION":"15.08844293","GP_ID":"200701914","MEAN_ELEMENT_THEORY":"SGP4","SITE":"AFETR","MEAN_MOTION_DOT":"-0.00025803","PERIOD":"95.437","OBJECT_ID":"2021-104AS","MEAN_ANOMALY":"317.0578","RCS_SIZE":"LARGE","TLE_LINE2":"2 49448  53.2157 166.6076 0002131  30.5984 317.0578 15.08844293  3561","TLE_LINE1":"1 49448U 21104AS  22097.91667824 -.00025803  00000-0 -16087-2 0  9994","APOAPSIS":"541.206","CENTER_NAME":"EARTH","ARG_OF_PERICENTER":"30.5984","COUNTRY_CODE":"US","OBJECT_TYPE":"PAYLOAD","EPOCH":"2022-04-07T22:00:00.999936","NORAD_CAT_ID":"49448","LAUNCH_DATE":"2021-11-13","CLASSIFICATION_TYPE":"U","EPHEMERIS_TYPE":"0","PERIAPSIS":"538.258","BSTAR":"-0.00160870000000","INCLINATION":"53.2157","DECAY_DATE":null,"SEMIMAJOR_AXIS":"6917.867","OBJECT_NAME":"STARLINK-3097","REV_AT_EPOCH":"356","MEAN_MOTION_DDOT":"0.0000000000000","RA_OF_ASC_NODE":"166.6076","ELEMENT_SET_NO":"999","REF_FRAME":"TEME","ECCENTRICITY":"0.00021310","FILE":"3392478","TIME_SYSTEM":"UTC"},{"NORAD_CAT_ID":"49449","EPOCH":"2022-04-07T22:00:00.999936","COUNTRY_CODE":"US","OBJECT_TYPE":"PAYLOAD","EPHEMERIS_TYPE":"0","CLASSIFICATION_TYPE":"U","LAUNCH_DATE":"2021-11-13","BSTAR":"-0.00121140000000","PERIAPSIS":"538.358","INCLINATION":"53.2145","MEAN_MOTION":"15.08848170","MEAN_MOTION_DOT":"-0.00019521","PERIOD":"95.437","SITE":"AFETR","MEAN_ELEMENT_THEORY":"SGP4","GP_ID":"200702164","RCS_SIZE":"LARGE","MEAN_ANOMALY":"32.4897","OBJECT_ID":"2021-104AT","ARG_OF_PERICENTER":"35.1391","CENTER_NAME":"EARTH","APOAPSIS":"541.083","TLE_LINE1":"1 49449U 21104AT  22097.91667824 -.00019521  00000-0 -12114-2 0  9992","TLE_LINE2":"2 49449  53.2145 166.5862 0001970  35.1391  32.4897 15.08848170  3575","REF_FRAME":"TEME","ELEMENT_SET_NO":"999","TIME_SYSTEM":"UTC","FILE":"3392478","ECCENTRICITY":"0.00019700","SEMIMAJOR_AXIS":"6917.855","DECAY_DATE":null,"OBJECT_NAME":"STARLINK-3137","MEAN_MOTION_DDOT":"0.0000000000000","REV_AT_EPOCH":"357","RA_OF_ASC_NODE":"166.5862"},{"FILE":"3392478","ECCENTRICITY":"0.00019880","TIME_SYSTEM":"UTC","ELEMENT_SET_NO":"999","REF_FRAME":"TEME","RA_OF_ASC_NODE":"166.6127","REV_AT_EPOCH":"357","MEAN_MOTION_DDOT":"0.0000000000000","OBJECT_NAME":"STARLINK-3127","DECAY_DATE":null,"SEMIMAJOR_AXIS":"6917.856","INCLINATION":"53.2167","PERIAPSIS":"538.346","BSTAR":"-0.00012623000000","LAUNCH_DATE":"2021-11-13","CLASSIFICATION_TYPE":"U","EPHEMERIS_TYPE":"0","COUNTRY_CODE":"US","OBJECT_TYPE":"PAYLOAD","EPOCH":"2022-04-07T22:00:00.999936","NORAD_CAT_ID":"49450","TLE_LINE2":"2 49450  53.2167 166.6127 0001988  34.9424 352.6824 15.08847992  3577","TLE_LINE1":"1 49450U 21104AU  22097.91667824 -.00002297  00000-0 -12623-3 0  9992","APOAPSIS":"541.096","ARG_OF_PERICENTER":"34.9424","CENTER_NAME":"EARTH","OBJECT_ID":"2021-104AU","RCS_SIZE":"LARGE","MEAN_ANOMALY":"352.6824","GP_ID":"200703411","MEAN_ELEMENT_THEORY":"SGP4","SITE":"AFETR","MEAN_MOTION_DOT":"-0.00002297","PERIOD":"95.437","MEAN_MOTION":"15.08847992"},{"ELEMENT_SET_NO":"999","REF_FRAME":"TEME","ECCENTRICITY":"0.00021120","FILE":"3392478","TIME_SYSTEM":"UTC","OBJECT_NAME":"STARLINK-3125","DECAY_DATE":null,"SEMIMAJOR_AXIS":"6917.859","RA_OF_ASC_NODE":"166.5868","REV_AT_EPOCH":"357","MEAN_MOTION_DDOT":"0.0000000000000","LAUNCH_DATE":"2021-11-13","CLASSIFICATION_TYPE":"U","EPHEMERIS_TYPE":"0","OBJECT_TYPE":"PAYLOAD","COUNTRY_CODE":"US","EPOCH":"2022-04-07T22:00:00.999936","NORAD_CAT_ID":"49451","INCLINATION":"53.2160","PERIAPSIS":"538.263","BSTAR":"0.00022363000000","GP_ID":"200703666","MEAN_ELEMENT_THEORY":"SGP4","SITE":"AFETR","PERIOD":"95.437","MEAN_MOTION_DOT":"0.00003273","MEAN_MOTION":"15.08847008","TLE_LINE2":"2 49451  53.2160 166.5868 0002112  32.1737  55.4427 15.08847008  3574","TLE_LINE1":"1 49451U 21104AV  22097.91667824  .00003273  00000-0  22363-3 0  9998","APOAPSIS":"541.185","CENTER_NAME":"EARTH","ARG_OF_PERICENTER":"32.1737","OBJECT_ID":"2021-104AV","MEAN_ANOMALY":"55.4427","RCS_SIZE":"LARGE"},{"GP_ID":"200702415","MEAN_ELEMENT_THEORY":"SGP4","SITE":"AFETR","PERIOD":"95.437","MEAN_MOTION_DOT":"-0.00025920","MEAN_MOTION":"15.08853846","TLE_LINE2":"2 49452  53.2160 166.5838 0002084  33.2942 129.1564 15.08853846  3567","TLE_LINE1":"1 49452U 21104AW  22097.91667824 -.00025920  00000-0 -16157-2 0  9997","APOAPSIS":"541.145","CENTER_NAME":"EARTH","ARG_OF_PERICENTER":"33.2942","OBJECT_ID":"2021-104AW","MEAN_ANOMALY":"129.1564","RCS_SIZE":"LARGE","LAUNCH_DATE":"2021-11-13","CLASSIFICATION_TYPE":"U","EPHEMERIS_TYPE":"0","OBJECT_TYPE":"PAYLOAD","COUNTRY_CODE":"US","EPOCH":"2022-04-07T22:00:00.999936","NORAD_CAT_ID":"49452","INCLINATION":"53.2160","PERIAPSIS":"538.261","BSTAR":"-0.00161570000000","OBJECT_NAME":"STARLINK-3150","DECAY_DATE":null,"SEMIMAJOR_AXIS":"6917.838","RA_OF_ASC_NODE":"166.5838","REV_AT_EPOCH":"356","MEAN_MOTION_DDOT":"0.0000000000000","ELEMENT_SET_NO":"999","REF_FRAME":"TEME","FILE":"3392478","ECCENTRICITY":"0.00020840","TIME_SYSTEM":"UTC"},{"INCLINATION":"53.2163","PERIAPSIS":"538.340","BSTAR":"-0.00038293000000","CLASSIFICATION_TYPE":"U","EPHEMERIS_TYPE":"0","LAUNCH_DATE":"2021-11-13","NORAD_CAT_ID":"49453","COUNTRY_CODE":"US","OBJECT_TYPE":"PAYLOAD","EPOCH":"2022-04-07T22:00:00.999936","ARG_OF_PERICENTER":"32.9336","CENTER_NAME":"EARTH","TLE_LINE2":"2 49453  53.2163 166.5847 0002008  32.9336  94.6848 15.08845245  3565","APOAPSIS":"541.118","TLE_LINE1":"1 49453U 21104AX  22097.91667824 -.00006378  00000-0 -38293-3 0  9990","OBJECT_ID":"2021-104AX","RCS_SIZE":"LARGE","MEAN_ANOMALY":"94.6848","SITE":"AFETR","PERIOD":"95.437","MEAN_MOTION_DOT":"-0.00006378","GP_ID":"200702665","MEAN_ELEMENT_THEORY":"SGP4","MEAN_MOTION":"15.08845245","TIME_SYSTEM":"UTC","FILE":"3392478","ECCENTRICITY":"0.00020080","ELEMENT_SET_NO":"999","REF_FRAME":"TEME","RA_OF_ASC_NODE":"166.5847","MEAN_MOTION_DDOT":"0.0000000000000","REV_AT_EPOCH":"356","OBJECT_NAME":"STARLINK-3129","SEMIMAJOR_AXIS":"6917.864","DECAY_DATE":null},{"TLE_LINE2":"2 49454  53.2171 166.5881 0002704  22.9680  84.6570 15.08846868  3616","APOAPSIS":"541.595","TLE_LINE1":"1 49454U 21104AY  22097.91667824  .00001976  00000-0  14223-3 0  9995","CENTER_NAME":"EARTH","ARG_OF_PERICENTER":"22.9680","OBJECT_ID":"2021-104AY","RCS_SIZE":"LARGE","MEAN_ANOMALY":"84.6570","GP_ID":"200702911","MEAN_ELEMENT_THEORY":"SGP4","SITE":"AFETR","PERIOD":"95.437","MEAN_MOTION_DOT":"0.00001976","MEAN_MOTION":"15.08846868","INCLINATION":"53.2171","PERIAPSIS":"537.854","BSTAR":"0.00014223000000","LAUNCH_DATE":"2021-11-13","CLASSIFICATION_TYPE":"U","EPHEMERIS_TYPE":"0","COUNTRY_CODE":"US","OBJECT_TYPE":"PAYLOAD","EPOCH":"2022-04-07T22:00:00.999936","NORAD_CAT_ID":"49454","RA_OF_ASC_NODE":"166.5881","REV_AT_EPOCH":"361","MEAN_MOTION_DDOT":"0.0000000000000","OBJECT_NAME":"STARLINK-3160","DECAY_DATE":null,"SEMIMAJOR_AXIS":"6917.859","FILE":"3392478","ECCENTRICITY":"0.00027040","TIME_SYSTEM":"UTC","ELEMENT_SET_NO":"999","REF_FRAME":"TEME"}];
